LOPEN                   
1 60473U 24149F   26068.72998475  .00017417  00000+0  48871-3 0  9993
2 60473  97.3812 151.5309 0000865 189.0263 171.0966 15.36629582 86971
STARLINK-35085          
1 65419U 25192R   26068.73750662  .00036316  00000+0  10199-2 0  9992
2 65419  53.1594 231.9800 0000399  74.5933 285.5115 15.36219796 29398
